NORAD_CAT_ID,OBJECT_NAME,OBJECT_TYPE,EPOCH,MEAN_MOTION,ECCENTRICITY,INCLINATION,RA_OF_ASC_NODE,ARG_OF_PERICENTER,MEAN_ANOMALY,BSTAR,MEAN_MOTION_DOT,MEAN_MOTION_DDOT,TLE_LINE0,TLE_LINE1,TLE_LINE2,SEMIMAJOR_AXIS,PERIOD,APOGEE,PERIGEE,DECAYED
55644.0,STARLINK-5502,PAYLOAD,2023-03-18 11:05:31,15.69928402,0.0003929,70.0011,69.2706,262.1803,97.8947,2.2421e-05,2.484e-05,0.0,0 STARLINK-5502,1 55644U 23021S   23077.46216480  .00002484  00000-0  22421-4 0  9995,2 55644  70.0011  69.2706 0003929 262.1803  97.8947 15.69928402  5049,6737.239,91.724,361.751,356.457,0.0
55644.0,STARLINK-5502,PAYLOAD,2023-03-18 21:47:46,15.69924525,0.0003891,70.001,68.0164,261.5593,98.5162,1.3574e-05,1.42e-05,0.0,0 STARLINK-5502,1 55644U 23021S   23077.90818279  .00001420  00000-0  13574-4 0  9996,2 55644  70.0010  68.0164 0003891 261.5593  98.5162 15.69924525  5421,6737.25,91.724,361.736,356.493,0.0
55644.0,STARLINK-5502,PAYLOAD,2023-03-19 08:30:02,15.69936135,0.0003599,69.9997,66.761,263.9029,96.1756,4.1298e-05,4.758e-05,0.0,0 STARLINK-5502,1 55644U 23021S   23078.35419620  .00004758  00000-0  41298-4 0  9994,2 55644  69.9997  66.7610 0003599 263.9029  96.1756 15.69936135  5498,6737.217,91.723,361.506,356.657,0.0
55644.0,STARLINK-5502,PAYLOAD,2023-03-19 16:08:48,15.69924476,0.0003007,70.0012,65.8661,266.4325,93.6527,1.204e-05,1.235e-05,0.0,0 STARLINK-5502,1 55644U 23021S   23078.67278586  .00001235  00000-0  12040-4 0  9993,2 55644  70.0012  65.8661 0003007 266.4325  93.6527 15.69924476  5231,6737.25,91.724,361.141,357.089,0.0
55644.0,STARLINK-5502,PAYLOAD,2023-03-20 10:29:50,15.69917623,0.0002449,70.0018,63.7169,279.8155,80.2764,8.0535e-07,-1.15e-06,0.0,0 STARLINK-5502,1 55644U 23021S   23079.43739052 -.00000115  00000-0  80535-6 0  9991,2 55644  70.0018  63.7169 0002449 279.8155  80.2764 15.69917623  5359,6737.27,91.725,360.785,357.485,0.0
55644.0,STARLINK-5502,PAYLOAD,2023-03-20 16:36:50,15.69924038,0.0003731,70.0003,62.9995,262.588,97.4891,2.0411e-05,2.242e-05,0.0,0 STARLINK-5502,1 55644U 23021S   23079.69225142  .00002242  00000-0  20411-4 0  9996,2 55644  70.0003  62.9995 0003731 262.5880  97.4891 15.69924038  5393,6737.251,91.724,361.63,356.603,0.0
55644.0,STARLINK-5502,PAYLOAD,2023-03-21 10:57:52,15.6991789,0.0002751,70.0006,60.849,267.7528,92.3352,1.7409e-05,1.881e-05,0.0,0 STARLINK-5502,1 55644U 23021S   23080.45685719  .00001881  00000-0  17409-4 0  9993,2 55644  70.0006  60.8490 0002751 267.7528  92.3352 15.69917890  5822,6737.269,91.725,360.987,357.28,0.0
55644.0,STARLINK-5502,PAYLOAD,2023-03-22 05:18:53,15.69936193,0.0003306,70.0017,58.7006,270.1619,89.9198,0.0001822,0.00021763,0.0,0 STARLINK-5502,1 55644U 23021S   23081.22145255  .00021763  00000-0  18220-3 0  9997,2 55644  70.0017  58.7006 0003306 270.1619  89.9198 15.69936193  5635,6737.217,91.723,361.309,356.854,0.0
55644.0,STARLINK-5502,PAYLOAD,2023-03-22 08:22:23,15.69933645,0.0003499,70.0007,58.3415,271.7114,88.3681,0.00017652,0.00021074,0.0,0 STARLINK-5502,1 55644U 23021S   23081.34888630  .00021074  00000-0  17652-3 0  9994,2 55644  70.0007  58.3415 0003499 271.7114  88.3681 15.69933645  5969,6737.224,91.724,361.446,356.731,0.0
55644.0,STARLINK-5502,PAYLOAD,2023-03-23 04:15:10,15.69924427,0.0003214,70.0011,56.0137,267.5807,92.5021,2.4889e-05,2.781e-05,0.0,0 STARLINK-5502,1 55644U 23021S   23082.17720558  .00002781  00000-0  24889-4 0  9995,2 55644  70.0011  56.0137 0003214 267.5807  92.5021 15.69924427  5780,6737.25,91.724,361.281,356.95,0.0
55644.0,STARLINK-5502,PAYLOAD,2023-03-23 07:18:40,15.69925003,0.0003479,70.0009,55.6555,268.2932,91.7865,1.625e-05,1.742e-05,0.0,0 STARLINK-5502,1 55644U 23021S   23082.30463903  .00001742  00000-0  16250-4 0  9997,2 55644  70.0009  55.6555 0003479 268.2932  91.7865 15.69925003  6112,6737.249,91.724,361.457,356.77,0.0
55644.0,STARLINK-5502,PAYLOAD,2023-03-23 22:36:11,15.69933966,0.0003356,70.0014,53.8644,267.8638,92.2174,3.679e-05,4.215e-05,0.0,0 STARLINK-5502,1 55644U 23021S   23082.94180408  .00004215  00000-0  36790-4 0  9992,2 55644  70.0014  53.8644 0003356 267.8638  92.2174 15.69933966  6216,6737.223,91.724,361.349,356.827,0.0
55644.0,STARLINK-5502,PAYLOAD,2023-03-24 04:43:11,15.69969648,0.0003398,70.0014,53.1484,266.2951,93.7857,0.00015602,0.00018624,0.0,0 STARLINK-5502,1 55644U 23021S   23083.19665934  .00018624  00000-0  15602-3 0  9999,2 55644  70.0014  53.1484 0003398 266.2951  93.7857 15.69969648  5947,6737.121,91.722,361.275,356.697,0.0
55644.0,STARLINK-5502,PAYLOAD,2023-03-24 07:46:42,15.69919908,0.0003192,70.0014,52.7895,276.0879,83.9953,-1.2277e-05,-1.688e-05,0.0,0 STARLINK-5502,1 55644U 23021S   23083.32410602 -.00001688  00000-0 -12277-4 0  9994,2 55644  70.0014  52.7895 0003192 276.0879  83.9953 15.69919908  5962,6737.263,91.724,361.279,356.978,0.0
55644.0,STARLINK-5502,PAYLOAD,2023-03-24 15:25:28,15.69913853,0.000313,70.0013,51.8939,280.0861,79.9981,-3.2488e-05,-4.115e-05,0.0,0 STARLINK-5502,1 55644U 23021S   23083.64269034 -.00004115  00000-0 -32488-4 0  9994,2 55644  70.0013  51.8939 0003130 280.0861  79.9981 15.69913853  6328,6737.28,91.725,361.254,357.037,0.0
55644.0,STARLINK-5502,PAYLOAD,2023-03-25 00:36:00,15.69882921,0.0003352,70.0017,50.8196,278.3785,81.7031,-8.5529e-05,-0.00010466,0.0,0 STARLINK-5502,1 55644U 23021S   23084.02500829 -.00010466  00000-0 -85529-4 0  9997,2 55644  70.0017  50.8196 0003352 278.3785  81.7031 15.69882921  6077,6737.369,91.727,361.492,356.976,0.0
55644.0,STARLINK-5502,PAYLOAD,2023-03-25 08:14:45,15.69907331,0.0003244,70.0019,49.9247,252.4206,107.6636,-2.7465e-05,-3.511e-05,0.0,0 STARLINK-5502,1 55644U 23021S   23084.34358429 -.00003511  00000-0 -27465-4 0  9997,2 55644  70.0019  49.9247 0003244 252.4206 107.6636 15.69907331  6124,6737.299,91.725,361.35,356.979,0.0
55644.0,STARLINK-5502,PAYLOAD,2023-03-26 04:07:31,15.6992994,0.0004092,70.0019,47.5951,270.5879,89.4848,4.6012e-05,5.325e-05,0.0,0 STARLINK-5502,1 55644U 23021S   23085.17189308  .00005325  00000-0  46012-4 0  9999,2 55644  70.0019  47.5951 0004092 270.5879  89.4848 15.69929940  6255,6737.234,91.724,361.856,356.343,0.0
55644.0,STARLINK-5502,PAYLOAD,2023-03-26 07:11:03,15.69898414,0.0002736,70.0019,47.2378,265.9959,94.0924,-7.291e-05,-8.959e-05,0.0,0 STARLINK-5502,1 55644U 23021S   23085.29934160 -.00008959  00000-0 -72910-4 0  9990,2 55644  70.0019  47.2378 0002736 265.9959  94.0924 15.69898414  6275,6737.325,91.726,361.033,357.346,0.0
55644.0,STARLINK-5502,PAYLOAD,2023-03-26 22:28:33,15.69916461,0.0003127,70.0023,45.4461,271.255,88.8287,5.6806e-05,6.621e-05,0.0,0 STARLINK-5502,1 55644U 23021S   23085.93650327  .00006621  00000-0  56806-4 0  9999,2 55644  70.0023  45.4461 0003127 271.2550  88.8287 15.69916461  6686,6737.273,91.725,361.245,357.031,0.0
55644.0,STARLINK-5502,PAYLOAD,2023-03-27 00:00:18,15.69925225,0.0002652,70.0035,45.2683,259.2477,100.842,7.1907e-05,8.442e-05,0.0,0 STARLINK-5502,1 55644U 23021S   23086.00021649  .00008442  00000-0  71907-4 0  9999,2 55644  70.0035  45.2683 0002652 259.2477 100.8420 15.69925225  6388,6737.248,91.724,360.9,357.326,0.0
55644.0,STARLINK-5502,PAYLOAD,2023-03-27 06:07:18,15.69931294,0.0002814,70.0024,44.5521,258.0546,102.0334,4.7634e-05,5.52e-05,0.0,0 STARLINK-5502,1 55644U 23021S   23086.25508012  .00005520  00000-0  47634-4 0  9994,2 55644  70.0024  44.5521 0002814 258.0546 102.0334 15.69931294  6733,6737.231,91.724,360.991,357.2,0.0
55644.0,STARLINK-5502,PAYLOAD,2023-03-27 19:53:04,15.6993148,0.0003408,70.0003,42.9383,246.0704,114.0135,-6.0466e-06,-9.4e-06,0.0,0 STARLINK-5502,1 55644U 23021S   23086.82852458 -.00000940  00000-0 -60466-5 0  9995,2 55644  70.0003  42.9383 0003408 246.0704 114.0135 15.69931480  6820,6737.23,91.724,361.391,356.799,0.0
55644.0,STARLINK-5502,PAYLOAD,2023-03-28 05:03:35,15.69933097,0.0003333,70.0017,41.8637,266.0912,93.9902,2.0574e-05,2.263e-05,0.0,0 STARLINK-5502,1 55644U 23021S   23087.21082471  .00002263  00000-0  20574-4 0  9992,2 55644  70.0017  41.8637 0003333 266.0912  93.9902 15.69933097  6570,6737.225,91.724,361.336,356.845,0.0
55644.0,STARLINK-5502,PAYLOAD,2023-03-28 21:52:51,15.69936006,0.000298,70.0019,39.8912,252.5142,107.5728,-1.9685e-05,-2.58e-05,0.0,0 STARLINK-5502,1 55644U 23021S   23087.91170656 -.00002580  00000-0 -19685-4 0  9997,2 55644  70.0019  39.8912 0002980 252.5142 107.5728 15.69936006  6994,6737.217,91.723,361.09,357.074,0.0
55644.0,STARLINK-5502,PAYLOAD,2023-03-29 07:03:22,15.69936161,0.0003017,70.0014,38.8164,255.3223,104.7638,-9.0445e-06,-1.3e-05,0.0,0 STARLINK-5502,1 55644U 23021S   23088.29400534 -.00001300  00000-0 -90445-5 0  9993,2 55644  70.0014  38.8164 0003017 255.3223 104.7638 15.69936161  6744,6737.217,91.723,361.114,357.049,0.0
55644.0,STARLINK-5502,PAYLOAD,2023-03-30 05:59:39,15.69924477,0.0002811,70.0016,36.1309,255.4167,104.6717,1.4779e-05,1.565e-05,0.0,0 STARLINK-5502,1 55644U 23021S   23089.24976456  .00001565  00000-0  14779-4 0  9996,2 55644  70.0016  36.1309 0002811 255.4167 104.6717 15.69924477  6897,6737.25,91.724,361.009,357.221,0.0
55644.0,STARLINK-5502,PAYLOAD,2023-03-31 07:59:27,15.69908537,0.0002393,70.0019,33.0853,277.2698,82.8225,-2.0895e-05,-2.722e-05,0.0,0 STARLINK-5502,1 55644U 23021S   23090.33295770 -.00002722  00000-0 -20895-4 0  9995,2 55644  70.0019  33.0853 0002393 277.2698  82.8225 15.69908537  7066,6737.296,91.725,360.773,357.548,0.0
55644.0,STARLINK-5502,PAYLOAD,2023-04-01 08:27:28,15.69928743,0.0003226,69.9996,30.2194,266.6384,93.4442,2.262e-06,5.9e-07,0.0,0 STARLINK-5502,1 55644U 23021S   23091.35241763  .00000059  00000-0  22620-5 0  9999,2 55644  69.9996  30.2194 0003226 266.6384  93.4442 15.69928743  7222,6737.238,91.724,361.276,356.929,0.0
55644.0,STARLINK-5502,PAYLOAD,2023-04-02 05:52:01,15.6990111,0.0002668,70.0026,27.7114,265.9535,94.1355,-5.1957e-05,-6.448e-05,0.0,0 STARLINK-5502,1 55644U 23021S   23092.24446162 -.00006448  00000-0 -51957-4 0  9992,2 55644  70.0026  27.7114 0002668 265.9535  94.1355 15.69901110  7366,6737.317,91.726,360.979,357.384,0.0
